[{"OBJECT_NAME":"ICESAT-2","OBJECT_ID":"2018-070A","EPOCH":"2026-03-09T22:54:12.225888","MEAN_MOTION":15.28328617,"ECCENTRICITY":0.00038245,"INCLINATION":91.9993,"RA_OF_ASC_NODE":264.2397,"ARG_OF_PERICENTER":123.8941,"MEAN_ANOMALY":236.2673,"EPHEMERIS_TYPE":0,"CLASSIFICATION_TYPE":"U","NORAD_CAT_ID":43613,"ELEMENT_SET_NO":999,"REV_AT_EPOCH":41730,"BSTAR":0.00014022643,"MEAN_MOTION_DOT":3.87e-5,"MEAN_MOTION_DDOT":0},{"OBJECT_NAME":"STARLINK-31662","OBJECT_ID":"2024-076W","EPOCH":"2026-03-09T05:55:38.668512","MEAN_MOTION":15.27527147,"ECCENTRICITY":0.00013429,"INCLINATION":43.001,"RA_OF_ASC_NODE":11.6107,"ARG_OF_PERICENTER":243.6709,"MEAN_ANOMALY":116.4005,"EPHEMERIS_TYPE":0,"CLASSIFICATION_TYPE":"U","NORAD_CAT_ID":59584,"ELEMENT_SET_NO":999,"REV_AT_EPOCH":10643,"BSTAR":0.00029563837,"MEAN_MOTION_DOT":7.869e-5,"MEAN_MOTION_DDOT":0}]
